OBJECT_NAME,OBJECT_ID,EPOCH,MEAN_MOTION,ECCENTRICITY,INCLINATION,RA_OF_ASC_NODE,ARG_OF_PERICENTER,MEAN_ANOMALY,EPHEMERIS_TYPE,CLASSIFICATION_TYPE,NORAD_CAT_ID,ELEMENT_SET_NO,REV_AT_EPOCH,BSTAR,MEAN_MOTION_DOT,MEAN_MOTION_DDOT
GONETS-M 11,2015-020A,2026-05-19T20:01:14.569824,12.42875761,.0017391,82.4889,48.6571,64.3822,295.9052,0,U,40552,999,50521,.16261E-3,.33E-6,0
GONETS-M 12,2015-020B,2026-05-19T19:23:32.019072,12.42890358,.0016344,82.4922,49.7897,50.2155,310.0361,0,U,40553,999,50520,.72017E-3,.11E-5,0
GONETS-M 13,2015-020C,2026-05-19T18:44:39.370272,12.42869280,.0014808,82.4885,48.4298,36.3340,323.8742,0,U,40554,999,50517,.94579E-3,.141E-5,0
DMC3-FM1,2015-032A,2026-05-19T20:26:08.157120,14.85702958,.0006486,97.6492,6.1330,134.6276,225.5470,0,U,40715,999,58570,.70835E-4,.563E-5,0
DMC3-FM2,2015-032B,2026-05-19T20:58:01.909344,14.85709382,.0006841,97.6549,7.7087,139.6229,220.5496,0,U,40716,999,58570,.76231E-4,.61E-5,0
DMC3-FM3,2015-032C,2026-05-19T21:31:20.781120,14.85695907,.0005981,97.6599,9.4657,138.3060,221.8612,0,U,40717,999,58571,-.18749E-4,-.214E-5,0
CARBONITE 1 (CBNT-1),2015-032D,2026-05-19T18:53:18.187584,14.83490269,.0015299,97.6496,319.0467,33.1797,327.0374,0,U,40718,999,58513,.16065E-3,.1272E-4,0
DEORBITSAIL,2015-032E,2026-05-19T20:59:57.972192,15.03427662,.0012146,97.5928,357.2435,337.6535,22.4160,0,U,40719,999,58699,.39436E-3,.5315E-4,0
2015-049G,2015-049G,2026-05-19T20:32:40.996320,15.64120214,.0003211,97.4577,182.2733,332.2188,27.8899,0,U,40905,999,59201,.33949E-3,.3211E-3,0
LILACSAT-2,2015-049K,2026-05-19T19:39:40.955328,15.50422316,.0006833,97.4675,175.5996,14.3695,345.7749,0,U,40908,999,59135,.23568E-3,.13324E-3,0
COSMOS 2507 (RODNIK-S 13),2015-050A,2026-05-19T19:37:28.343424,12.42926059,.0011103,82.4905,97.3321,54.4235,305.7878,0,U,40920,999,48333,.55553E-3,.87E-6,0
COSMOS 2508 (RODNIK-S 14),2015-050B,2026-05-19T20:28:11.949312,12.42913512,.0015534,82.4859,95.8260,84.4340,275.8511,0,U,40921,999,48332,.93357E-3,.139E-5,0
COSMOS 2509 (RODNIK-S 15),2015-050C,2026-05-19T20:56:28.382208,12.42882957,.0015745,82.4867,95.9131,100.3807,259.9048,0,U,40922,999,48336,.6037E-3,.94E-6,0
LQSAT,2015-057A,2026-05-19T19:33:52.231104,14.76743525,.0017375,97.6675,134.5972,10.0805,350.0751,0,U,40958,999,57112,.8183E-4,.526E-5,0
LINGQIAO VIDEO A,2015-057B,2026-05-19T21:58:06.790368,14.77348191,.0017069,97.6618,136.1141,7.1257,353.0193,0,U,40959,999,57123,.47561E-4,.29E-5,0
LINGQIAO VIDEO B,2015-057C,2026-05-19T21:27:26.708832,14.77454635,.0017174,97.6583,137.2651,7.2167,352.9289,0,U,40960,999,57127,.1177E-3,.792E-5,0
JILIN-1,2015-057D,2026-05-19T20:27:32.663232,14.78107147,.0016952,97.6510,140.6279,1.4376,358.6882,0,U,40961,999,57142,.73888E-4,.487E-5,0
FOX-1A (AO-85),2015-058D,2026-05-19T15:25:52.595040,14.90785766,.0129243,64.7763,7.6792,67.7972,293.6792,0,U,40967,999,10931,.19196E-3,.204E-4,0
SINOD-D 1,2015-058E,2026-05-19T20:44:16.594944,14.95665671,.0117761,64.7760,347.5945,64.4535,296.8699,0,U,40968,999,11242,.24167E-3,.2916E-4,0
ELEKTRO-L 2,2015-074A,2026-05-19T15:54:56.833920,1.00271640,.0001519,6.6231,70.8620,255.3021,135.4013,0,U,41105,999,3822,0,-.121E-5,0
DAMPE,2015-078A,2026-05-19T20:43:08.355360,15.30706077,.0012129,97.4561,145.1928,168.0066,192.1466,0,U,41173,999,58021,.34467E-4,.947E-5,0
ORBCOMM FM114,2015-081A,2026-05-19T16:38:02.982048,14.58821547,.0001421,47.0032,136.7169,45.6996,314.4006,0,U,41179,999,55359,.60436E-4,.114E-5,0
ORBCOMM FM110,2015-081D,2026-05-19T16:21:45.468000,14.58829391,.0003975,47.0003,136.2190,297.9731,62.0752,0,U,41182,999,55346,.11842E-3,.388E-5,0
ORBCOMM FM112,2015-081F,2026-05-19T10:43:55.360128,14.58855174,.0002467,47.0003,46.1438,65.7549,294.3594,0,U,41184,999,55475,.1039E-3,.32E-5,0
ORBCOMM FM113,2015-081G,2026-05-19T18:22:14.545632,14.58822683,.0001048,47.0018,45.0023,58.2960,301.8027,0,U,41185,999,55478,.75322E-4,.185E-5,0
ORBCOMM FM108,2015-081J,2026-05-19T10:53:51.478656,14.58825438,.0001964,47.0058,318.0422,66.4195,293.6897,0,U,41187,999,55588,.10469E-3,.323E-5,0
ORBCOMM FM117,2015-081K,2026-05-19T18:17:13.815744,14.58823386,.0002418,47.0019,315.2289,76.7138,283.4017,0,U,41188,999,55597,.98531E-4,.294E-5,0
ORBCOMM FM116,2015-081L,2026-05-19T11:14:53.876832,14.58832890,.00022,47.0033,46.4034,296.1977,63.8682,0,U,41189,999,55474,.10276E-3,.314E-5,0
CHUBUSAT-2,2016-012B,2026-05-19T17:23:07.092096,15.20560397,.0008721,30.9961,148.1276,149.4027,210.7124,0,U,41338,999,56408,.14536E-3,.3376E-4,0
CHUBUSAT-3,2016-012C,2026-05-19T17:47:36.474432,15.18293105,.0008975,31.0027,156.9294,137.7298,222.4035,0,U,41339,999,56387,.10609E-3,.2338E-4,0
HORYU-4,2016-012D,2026-05-19T18:10:27.770304,15.79898686,.0004388,30.9888,285.0471,82.5122,277.6034,0,U,41340,999,56629,.85394E-3,.168359E-2,0
ZIYUAN 3-02 (ZY 3-02),2016-033A,2026-05-19T20:11:13.556832,15.21498134,.0013243,97.3836,216.1589,40.8830,319.3397,0,U,41556,999,55367,.16535E-3,.3659E-4,0
CARTOSAT-2C,2016-040A,2026-05-19T19:19:17.508864,15.19234713,.0008601,97.4494,200.1690,226.3749,133.6773,0,U,41599,999,54940,.82267E-4,.1666E-4,0
LAPAN-A3,2016-040E,2026-05-19T20:41:49.263936,15.32908095,.001215,97.1489,136.9446,113.2688,246.9835,0,U,41603,999,55047,.70297E-4,.2164E-4,0
GAOFEN-3,2016-049A,2026-05-19T20:19:47.643744,14.42210938,.0000963,98.4014,148.0607,87.4842,272.6458,0,U,41727,999,51456,.52569E-5,-.26E-6,0
PRATHAM,2016-059A,2026-05-19T11:07:28.324128,14.67152832,.0030099,97.8323,137.5846,312.1175,47.7472,0,U,41783,999,51530,.79353E-4,.402E-5,0
ALSAT-1N,2016-059G,2026-05-19T20:28:51.148992,14.69256040,.002436,97.8006,144.4666,279.7033,80.1421,0,U,41789,999,51584,.73548E-4,.388E-5,0
CAS-2T & KS-1Q,2016-066G,2026-05-19T11:54:16.217856,14.44599488,.0341384,98.3827,215.5577,216.4556,141.2952,0,U,41847,999,50065,.10371E-3,.67E-5,0
YUNHAI-1 01,2016-068A,2026-05-19T19:29:18.155616,14.32717066,.0006541,98.5836,151.0827,111.9517,248.2363,0,U,41857,999,49776,.44772E-4,.78E-6,0
RESOURCESAT-2A,2016-074A,2026-05-19T20:20:21.123744,14.21605315,.0002853,98.7529,213.5817,137.7849,222.3549,0,U,41877,999,49027,-.44286E-4,-.141E-5,0
TANSAT,2016-081A,2026-05-19T19:20:36.233088,14.59923420,.0021489,98.5364,139.2260,39.7777,320.4993,0,U,41898,999,50048,.35564E-4,.12E-5,0
JILIN-1 03,2017-002B,2026-05-19T20:20:29.029344,15.40830872,.0003574,97.1955,147.3476,274.1450,85.9388,0,U,41914,999,51749,.24434E-3,.994E-4,0
CARTOSAT-2D,2017-008A,2026-05-19T20:06:04.477248,15.19255155,.0004136,97.4117,199.6686,354.6838,5.4352,0,U,41948,999,51327,.13123E-3,.2699E-4,0
CARTOSAT-2E,2017-036C,2026-05-19T18:56:23.297856,15.19229225,.0004131,97.4284,200.0555,58.8398,301.3241,0,U,42767,999,49383,.5043E-4,.995E-5,0
D-SAT,2017-036AF,2026-05-19T15:58:32.882304,15.16712036,.0080299,97.5550,118.6686,260.3788,98.8366,0,U,42794,999,48653,.1813E-3,.3782E-4,0
IRIDIUM 113,2017-039A,2026-05-19T18:35:43.243584,14.34217262,.0002173,86.3962,334.0607,92.5108,267.6337,0,U,42803,999,46711,-.12801E-4,-.16E-6,0
NORSAT 2,2017-042D,2026-05-19T18:00:07.157376,15.21296294,.0010675,97.4029,313.6577,145.9624,214.2298,0,U,42828,999,48341,.34854E-3,.774E-4,0
TECHNOSAT,2017-042E,2026-05-19T09:23:17.882016,15.04759082,.0017634,97.4252,298.1539,188.6248,171.4679,0,U,42829,999,48237,.19702E-3,.2727E-4,0
FLYING LAPTOP,2017-042G,2026-05-19T20:29:51.139968,15.00940990,.0017917,97.4566,296.5024,217.3979,142.6000,0,U,42831,999,48220,.19722E-3,.2464E-4,0
WNISAT 1R,2017-042L,2026-05-19T16:56:44.276064,15.01617278,.0009693,97.4807,296.8531,258.9930,101.0205,0,U,42835,999,48223,.12499E-3,.1565E-4,0
LEMUR-2-GREENBERG,2017-042N,2026-05-19T18:48:32.663232,15.30356314,.0010435,97.3810,320.5622,106.2900,253.9490,0,U,42837,999,48404,.43003E-3,.12577E-3,0
LEMUR-2-FURIAUS,2017-042R,2026-05-19T18:09:52.139808,15.29210336,.000832,97.3768,318.5563,156.7428,203.4190,0,U,42840,999,48386,.41327E-3,.11656E-3,0
CORVUS BC2,2017-042X,2026-05-19T16:39:59.976288,15.06090631,.001247,97.4041,302.1614,202.6518,157.4161,0,U,42846,999,48277,.10338E-3,.1453E-4,0
CORVUS BC1,2017-042Y,2026-05-19T19:48:13.449024,15.06261895,.0011993,97.4071,303.0822,178.0208,182.1069,0,U,42847,999,48282,.10992E-3,.1556E-4,0
VRSS-2,2017-060A,2026-05-19T19:31:40.806336,14.81143128,.0016684,97.6527,178.8161,187.3866,172.7104,0,U,42954,999,46425,.10608E-3,.776E-5,0
MOHAMMED VI-A,2017-070A,2026-05-19T19:50:56.826240,14.77096521,.0001582,97.9562,212.5464,105.0710,255.0675,0,U,43005,999,45979,.73857E-4,.471E-5,0
FENGYUN 3D,2017-072A,2026-05-19T19:35:39.391296,14.19733055,.0002421,99.0117,113.7292,110.1173,250.0263,0,U,43010,999,44096,.34293E-4,.26E-6,0
CZ-4C R/B,2017-072C,2026-05-19T17:05:51.270144,14.58750621,.0121443,98.5766,246.7835,239.3143,119.6043,0,U,43012,999,45248,.52889E-4,.215E-5,0
NOAA 20 (JPSS-1),2017-073A,2026-05-19T19:21:41.277600,14.19505874,.0001287,98.7763,79.5233,43.8288,316.2989,0,U,43013,999,44044,.42793E-4,.46E-6,0
MAKERSAT 0,2017-073D,2026-05-19T04:04:45.484896,15.30786593,.0110537,97.4662,21.4848,17.3797,343.1179,0,U,43016,999,46202,.44461E-3,.15924E-3,0
RADFXSAT (FOX-1B),2017-073E,2026-05-19T21:24:23.730048,15.12149906,.0153801,97.4738,7.6935,66.6401,295.0925,0,U,43017,999,46111,.32221E-3,.7348E-4,0
JILIN-1 04,2017-074A,2026-05-19T20:36:30.832416,15.41657500,.0002586,97.4836,248.7378,304.4433,55.6569,0,U,43022,999,46990,.23244E-3,.9709E-4,0
JILIN-1 05,2017-074B,2026-05-19T20:51:54.679968,15.33394487,.0004426,97.4843,245.6554,343.6414,16.4684,0,U,43023,999,46966,.18369E-3,.5848E-4,0
JILIN-1 06,2017-074C,2026-05-19T20:08:01.722912,15.33345616,.0006369,97.4770,242.6665,352.9398,7.1753,0,U,43024,999,46949,.13623E-3,.431E-4,0
IRIDIUM 116,2017-083C,2026-05-19T19:39:39.299040,14.34218262,.0001849,86.3958,333.8670,81.0132,279.1273,0,U,43072,999,44010,-.96036E-5,-.7E-7,0
IRIDIUM 130,2017-083D,2026-05-19T18:53:59.070336,14.34218053,.0002198,86.3965,334.1529,81.9484,278.1961,0,U,43073,999,44004,.11131E-5,.23E-6,0
LKW-2,2017-084A,2026-05-19T20:01:41.009952,15.25923461,.0002208,97.1205,180.9607,38.0575,322.0819,0,U,43080,999,46736,.14703E-3,.3703E-4,0
